start=new Date('2021-08-28T00:00:00.000Z').valueOf();
sats=[{"ECCENTRICITY":"0.00014890","DECAY_DATE":null,"MEAN_MOTION_DDOT":"0.0000000000000","LAUNCH_DATE":"2021-05-09","PERIAPSIS":"546.266","FILE":"3104038","RCS_SIZE":"LARGE","EPHEMERIS_TYPE":"0","CENTER_NAME":"EARTH","BSTAR":"0.00273110000000","TLE_LINE2":"2 48461  53.0548  55.1706 0001489 105.9731 291.1306 15.06372665  3648","CLASSIFICATION_TYPE":"U","OBJECT_NAME":"STARLINK-2693","REV_AT_EPOCH":"364","MEAN_MOTION":"15.06372665","NORAD_CAT_ID":"48461","EPOCH":"2021-08-27T22:00:01.999584","INCLINATION":"53.0548","APOAPSIS":"548.329","TIME_SYSTEM":"UTC","OBJECT_ID":"2021-040AK","MEAN_ELEMENT_THEORY":"SGP4","TLE_LINE1":"1 48461U 21040AK  21239.91668981  .00040603  00000-0  27311-2 0  9994","GP_ID":"183558516","SITE":"AFETR","OBJECT_TYPE":"PAYLOAD","COUNTRY_CODE":"US","RA_OF_ASC_NODE":"55.1706","REF_FRAME":"TEME","MEAN_MOTION_DOT":"0.00040603","MEAN_ANOMALY":"291.1306","ELEMENT_SET_NO":"999","SEMIMAJOR_AXIS":"6925.432","ARG_OF_PERICENTER":"105.9731","PERIOD":"95.594"},{"RA_OF_ASC_NODE":"60.2405","REF_FRAME":"TEME","MEAN_MOTION_DOT":"0.00036776","SEMIMAJOR_AXIS":"6925.427","ARG_OF_PERICENTER":"111.4894","PERIOD":"95.594","MEAN_ANOMALY":"163.2519","ELEMENT_SET_NO":"999","OBJECT_ID":"2021-040AL","TIME_SYSTEM":"UTC","MEAN_ELEMENT_THEORY":"SGP4","TLE_LINE1":"1 48462U 21040AL  21239.91668981  .00036776  00000-0  24766-2 0  9992","GP_ID":"183558068","EPOCH":"2021-08-27T22:00:01.999584","APOAPSIS":"548.745","INCLINATION":"53.0430","COUNTRY_CODE":"US","SITE":"AFETR","OBJECT_TYPE":"PAYLOAD","OBJECT_NAME":"STARLINK-2683","CLASSIFICATION_TYPE":"U","REV_AT_EPOCH":"359","MEAN_MOTION":"15.06374422","NORAD_CAT_ID":"48462","DECAY_DATE":null,"MEAN_MOTION_DDOT":"0.0000000000000","ECCENTRICITY":"0.00020980","FILE":"3104038","RCS_SIZE":"LARGE","PERIAPSIS":"545.839","EPHEMERIS_TYPE":"0","CENTER_NAME":"EARTH","BSTAR":"0.00247660000000","TLE_LINE2":"2 48462  53.0430  60.2405 0002098 111.4894 163.2519 15.06374422  3593","LAUNCH_DATE":"2021-05-09"},{"FILE":"3104038","RCS_SIZE":"LARGE","PERIAPSIS":"546.119","EPHEMERIS_TYPE":"0","CENTER_NAME":"EARTH","TLE_LINE2":"2 48463  53.0551  60.1737 0001733 105.8814 348.8420 15.06365628  3599","BSTAR":"0.00267440000000","LAUNCH_DATE":"2021-05-09","DECAY_DATE":null,"MEAN_MOTION_DDOT":"0.0000000000000","ECCENTRICITY":"0.00017330","REV_AT_EPOCH":"359","NORAD_CAT_ID":"48463","MEAN_MOTION":"15.06365628","OBJECT_NAME":"STARLINK-2689","CLASSIFICATION_TYPE":"U","COUNTRY_CODE":"US","OBJECT_TYPE":"PAYLOAD","SITE":"AFETR","MEAN_ELEMENT_THEORY":"SGP4","OBJECT_ID":"2021-040AM","TIME_SYSTEM":"UTC","GP_ID":"183558312","TLE_LINE1":"1 48463U 21040AM  21239.91668981  .00039742  00000-0  26744-2 0  9997","INCLINATION":"53.0551","APOAPSIS":"548.519","EPOCH":"2021-08-27T22:00:01.999584","PERIOD":"95.594","SEMIMAJOR_AXIS":"6925.454","ARG_OF_PERICENTER":"105.8814","ELEMENT_SET_NO":"999","MEAN_ANOMALY":"348.8420","MEAN_MOTION_DOT":"0.00039742","RA_OF_ASC_NODE":"60.1737","REF_FRAME":"TEME"},{"COUNTRY_CODE":"US","OBJECT_TYPE":"PAYLOAD","SITE":"AFETR","GP_ID":"183557976","TLE_LINE1":"1 48464U 21040AN  21239.91668981  .00037680  00000-0  25374-2 0  9995","MEAN_ELEMENT_THEORY":"SGP4","OBJECT_ID":"2021-040AN","TIME_SYSTEM":"UTC","APOAPSIS":"548.764","INCLINATION":"53.0552","EPOCH":"2021-08-27T22:00:01.999584","PERIOD":"95.594","SEMIMAJOR_AXIS":"6925.456","ARG_OF_PERICENTER":"119.0817","ELEMENT_SET_NO":"999","MEAN_ANOMALY":"90.5163","MEAN_MOTION_DOT":"0.00037680","RA_OF_ASC_NODE":"60.1739","REF_FRAME":"TEME","TLE_LINE2":"2 48464  53.0552  60.1739 0002083 119.0817  90.5163 15.06364866  3590","BSTAR":"0.00253740000000","RCS_SIZE":"LARGE","FILE":"3104038","PERIAPSIS":"545.879","CENTER_NAME":"EARTH","EPHEMERIS_TYPE":"0","LAUNCH_DATE":"2021-05-09","MEAN_MOTION_DDOT":"0.0000000000000","DECAY_DATE":null,"ECCENTRICITY":"0.00020830","NORAD_CAT_ID":"48464","MEAN_MOTION":"15.06364866","REV_AT_EPOCH":"359","OBJECT_NAME":"STARLINK-2686","CLASSIFICATION_TYPE":"U"},{"MEAN_MOTION_DDOT":"0.0000000000000","DECAY_DATE":null,"ECCENTRICITY":"0.00020470","TLE_LINE2":"2 48465  53.0536  60.1689 0002047 105.7447  43.8559 15.06385516  3593","BSTAR":"0.00262540000000","FILE":"3104038","RCS_SIZE":"LARGE","PERIAPSIS":"545.840","CENTER_NAME":"EARTH","EPHEMERIS_TYPE":"0","LAUNCH_DATE":"2021-05-09","OBJECT_NAME":"STARLINK-2681","CLASSIFICATION_TYPE":"U","NORAD_CAT_ID":"48465","MEAN_MOTION":"15.06385516","REV_AT_EPOCH":"359","GP_ID":"183558161","TLE_LINE1":"1 48465U 21040AP  21239.91668981  .00039026  00000-0  26254-2 0  9990","MEAN_ELEMENT_THEORY":"SGP4","TIME_SYSTEM":"UTC","OBJECT_ID":"2021-040AP","APOAPSIS":"548.676","INCLINATION":"53.0536","EPOCH":"2021-08-27T22:00:01.999584","COUNTRY_CODE":"US","OBJECT_TYPE":"PAYLOAD","SITE":"AFETR","MEAN_MOTION_DOT":"0.00039026","RA_OF_ASC_NODE":"60.1689","REF_FRAME":"TEME","PERIOD":"95.593","ARG_OF_PERICENTER":"105.7447","SEMIMAJOR_AXIS":"6925.393","ELEMENT_SET_NO":"999","MEAN_ANOMALY":"43.8559"},{"ECCENTRICITY":"0.00019440","DECAY_DATE":null,"MEAN_MOTION_DDOT":"0.0000000000000","LAUNCH_DATE":"2021-05-09","CENTER_NAME":"EARTH","FILE":"3104038","RCS_SIZE":"LARGE","PERIAPSIS":"545.969","EPHEMERIS_TYPE":"0","BSTAR":"0.00251320000000","TLE_LINE2":"2 48466  53.0711  60.1063 0001944 116.6233 112.9729 15.06366734  3592","CLASSIFICATION_TYPE":"U","OBJECT_NAME":"STARLINK-2687","REV_AT_EPOCH":"359","MEAN_MOTION":"15.06366734","NORAD_CAT_ID":"48466","EPOCH":"2021-08-27T22:00:01.999584","APOAPSIS":"548.662","INCLINATION":"53.0711","OBJECT_ID":"2021-040AQ","TIME_SYSTEM":"UTC","MEAN_ELEMENT_THEORY":"SGP4","TLE_LINE1":"1 48466U 21040AQ  21239.91668981  .00037318  00000-0  25132-2 0  9997","GP_ID":"183558424","SITE":"AFETR","OBJECT_TYPE":"PAYLOAD","COUNTRY_CODE":"US","RA_OF_ASC_NODE":"60.1063","REF_FRAME":"TEME","MEAN_MOTION_DOT":"0.00037318","ELEMENT_SET_NO":"999","MEAN_ANOMALY":"112.9729","ARG_OF_PERICENTER":"116.6233","SEMIMAJOR_AXIS":"6925.451","PERIOD":"95.594"},{"MEAN_ANOMALY":"347.2605","ELEMENT_SET_NO":"999","SEMIMAJOR_AXIS":"6925.393","ARG_OF_PERICENTER":"102.3115","PERIOD":"95.593","RA_OF_ASC_NODE":"60.1732","REF_FRAME":"TEME","MEAN_MOTION_DOT":"0.00039711","SITE":"AFETR","OBJECT_TYPE":"PAYLOAD","COUNTRY_CODE":"US","EPOCH":"2021-08-27T22:00:01.999584","INCLINATION":"53.0549","APOAPSIS":"548.596","TIME_SYSTEM":"UTC","OBJECT_ID":"2021-040AR","MEAN_ELEMENT_THEORY":"SGP4","TLE_LINE1":"1 48467U 21040AR  21239.91668981  .00039711  00000-0  26709-2 0  9998","GP_ID":"183557957","REV_AT_EPOCH":"359","MEAN_MOTION":"15.06385373","NORAD_CAT_ID":"48467","CLASSIFICATION_TYPE":"U","OBJECT_NAME":"STARLINK-2659","LAUNCH_DATE":"2021-05-09","RCS_SIZE":"LARGE","FILE":"3104038","PERIAPSIS":"545.920","EPHEMERIS_TYPE":"0","CENTER_NAME":"EARTH","BSTAR":"0.00267090000000","TLE_LINE2":"2 48467  53.0549  60.1732 0001932 102.3115 347.2605 15.06385373  3599","ECCENTRICITY":"0.00019320","DECAY_DATE":null,"MEAN_MOTION_DDOT":"0.0000000000000"},{"RA_OF_ASC_NODE":"60.1706","REF_FRAME":"TEME","MEAN_MOTION_DOT":"0.00038158","SEMIMAJOR_AXIS":"6925.459","ARG_OF_PERICENTER":"100.9134","PERIOD":"95.594","ELEMENT_SET_NO":"999","MEAN_ANOMALY":"88.7204","TLE_LINE1":"1 48468U 21040AS  21239.91668981  .00038158  00000-0  25692-2 0  9993","GP_ID":"183558332","OBJECT_ID":"2021-040AS","TIME_SYSTEM":"UTC","MEAN_ELEMENT_THEORY":"SGP4","EPOCH":"2021-08-27T22:00:01.999584","APOAPSIS":"548.700","INCLINATION":"53.0543","COUNTRY_CODE":"US","SITE":"AFETR","OBJECT_TYPE":"PAYLOAD","OBJECT_NAME":"STARLINK-2685","CLASSIFICATION_TYPE":"U","MEAN_MOTION":"15.06364064","NORAD_CAT_ID":"48468","REV_AT_EPOCH":"359","MEAN_MOTION_DDOT":"0.0000000000000","DECAY_DATE":null,"ECCENTRICITY":"0.00019870","BSTAR":"0.00256920000000","TLE_LINE2":"2 48468  53.0543  60.1706 0001987 100.9134  88.7204 15.06364064  3596","FILE":"3104038","RCS_SIZE":"LARGE","PERIAPSIS":"545.948","CENTER_NAME":"EARTH","EPHEMERIS_TYPE":"0","LAUNCH_DATE":"2021-05-09"},{"TLE_LINE1":"1 48469U 21040AT  21239.91668981  .00039736  00000-0  26740-2 0  9992","GP_ID":"183558517","TIME_SYSTEM":"UTC","OBJECT_ID":"2021-040AT","MEAN_ELEMENT_THEORY":"SGP4","EPOCH":"2021-08-27T22:00:01.999584","INCLINATION":"53.0556","APOAPSIS":"548.464","COUNTRY_CODE":"US","SITE":"AFETR","OBJECT_TYPE":"PAYLOAD","RA_OF_ASC_NODE":"60.1757","REF_FRAME":"TEME","MEAN_MOTION_DOT":"0.00039736","SEMIMAJOR_AXIS":"6925.453","ARG_OF_PERICENTER":"111.8068","PERIOD":"95.594","MEAN_ANOMALY":"357.8248","ELEMENT_SET_NO":"999","MEAN_MOTION_DDOT":"0.0000000000000","DECAY_DATE":null,"ECCENTRICITY":"0.00016550","BSTAR":"0.00267400000000","TLE_LINE2":"2 48469  53.0556  60.1757 0001655 111.8068 357.8248 15.06365891  3593","FILE":"3104038","RCS_SIZE":"LARGE","EPHEMERIS_TYPE":"0","PERIAPSIS":"546.172","CENTER_NAME":"EARTH","LAUNCH_DATE":"2021-05-09","OBJECT_NAME":"STARLINK-2661","CLASSIFICATION_TYPE":"U","MEAN_MOTION":"15.06365891","NORAD_CAT_ID":"48469","REV_AT_EPOCH":"359"},{"LAUNCH_DATE":"2021-05-09","BSTAR":"0.00265370000000","TLE_LINE2":"2 48470  53.0543  60.1721 0001777 118.7768  10.8171 15.06378875  3597","PERIAPSIS":"546.048","FILE":"3104038","RCS_SIZE":"LARGE","EPHEMERIS_TYPE":"0","CENTER_NAME":"EARTH","ECCENTRICITY":"0.00017770","MEAN_MOTION_DDOT":"0.0000000000000","DECAY_DATE":null,"MEAN_MOTION":"15.06378875","NORAD_CAT_ID":"48470","REV_AT_EPOCH":"359","CLASSIFICATION_TYPE":"U","OBJECT_NAME":"STARLINK-2675","SITE":"AFETR","OBJECT_TYPE":"PAYLOAD","COUNTRY_CODE":"US","EPOCH":"2021-08-27T22:00:01.999584","INCLINATION":"53.0543","APOAPSIS":"548.509","TLE_LINE1":"1 48470U 21040AU  21239.91668981  .00039445  00000-0  26537-2 0  9995","GP_ID":"183558069","OBJECT_ID":"2021-040AU","TIME_SYSTEM":"UTC","MEAN_ELEMENT_THEORY":"SGP4","MEAN_ANOMALY":"10.8171","ELEMENT_SET_NO":"999","ARG_OF_PERICENTER":"118.7768","SEMIMAJOR_AXIS":"6925.413","PERIOD":"95.593","RA_OF_ASC_NODE":"60.1721","REF_FRAME":"TEME","MEAN_MOTION_DOT":"0.00039445"}];
